STARLINK-1300           
1 45374U 20019Q   26069.00003471  .00016030  00000+0  56718-3 0  9992
2 45374  53.1550 163.7958 0000906  78.2893 201.7903 15.29323290  5693
TEVEL2-2                
1 63219U 25052K   26068.64848259  .00020339  00000+0  69428-3 0  9991
2 63219  97.3987 324.7700 0004693 105.7930 254.3828 15.30343745 54855
